{"type": "FeatureCollection", "features": [ {"type": "Feature", "properties": {"norad_id": 44476, "name": "INTELSAT 39 (IS-39)", "group": "intelsat", "lat": -0.013376208707677178, "lon": -50.50041036573337, "alt_km": 35789.5248356433, "timestamp": "2025-12-06T11:28:10.697265+00:00", "meta": {"OBJECT_NAME": "INTELSAT 39 (IS-39)", "OBJECT_ID": "2019-049B", "EPOCH": "2025-12-05T21:34:38.508384", "MEAN_MOTION": 1.00269956, "ECCENTRICITY": 8.123e-05, "INCLINATION": 0.0172, "RA_OF_ASC_NODE": 324.3569, "ARG_OF_PERICENTER": 194.6692, "MEAN_ANOMALY": 301.53, "EPHEMERIS_TYPE": 0, "CLASSIFICATION_TYPE": "U", "NORAD_CAT_ID": 44476, "ELEMENT_SET_NO": 999, "REV_AT_EPOCH": 2319, "BSTAR": 0, "MEAN_MOTION_DOT": 4.3e-07, "MEAN_MOTION_DDOT": 0}, "tle": {"line1": "1 44476U 19049B   25339.89905681  .00000043  00000+0  00000+0 0  9991", "line2": "2 44476   0.0172 324.3569 0000812 194.6692 301.5300  1.00269956 23192"}}, "geometry": {"type": "Point", "coordinates": [-50.50041036573337, -0.013376208707677178]}}, {"type": "Feature", "properties": {"norad_id": 46114, "name": "GALAXY 30 (G-30)", "group": "intelsat", "lat": 0.022799787270499177, "lon": 122.52551755062579, "alt_km": 35793.09854016885, "timestamp": "2025-12-06T11:28:10.697277+00:00", "meta": {"OBJECT_NAME": "GALAXY 30 (G-30)", "OBJECT_ID": "2020-056C", "EPOCH": "2025-12-05T16:31:27.243264", "MEAN_MOTION": 1.00270053, "ECCENTRICITY": 0.00024837, "INCLINATION": 0.0157, "RA_OF_ASC_NODE": 337.7386, "ARG_OF_PERICENTER": 273.4815, "MEAN_ANOMALY": 306.3852, "EPHEMERIS_TYPE": 0, "CLASSIFICATION_TYPE": "U", "NORAD_CAT_ID": 46114, "ELEMENT_SET_NO": 999, "REV_AT_EPOCH": 1935, "BSTAR": 0, "MEAN_MOTION_DOT": 4.7e-07, "MEAN_MOTION_DDOT": 0}, "tle": {"line1": "1 46114U 20056C   25339.68850976  .00000047  00000+0  00000+0 0  9999", "line2": "2 46114   0.0157 337.7386 0002483 273.4815 306.3852  1.00270053 19358"}}, "geometry": {"type": "Point", "coordinates": [122.52551755062579, 0.022799787270499177]}}, {"type": "Feature", "properties": {"norad_id": 54026, "name": "GALAXY 33 (G-33)", "group": "intelsat", "lat": 0.028564741367621063, "lon": 114.53044457052974, "alt_km": 35793.27075571699, "timestamp": "2025-12-06T11:28:10.697288+00:00", "meta": {"OBJECT_NAME": "GALAXY 33 (G-33)", "OBJECT_ID": "2022-128A", "EPOCH": "2025-12-05T16:22:38.561664", "MEAN_MOTION": 1.00269755, "ECCENTRICITY": 0.00022457, "INCLINATION": 0.0146, "RA_OF_ASC_NODE": 29.2762, "ARG_OF_PERICENTER": 219.9027, "MEAN_ANOMALY": 298.2192, "EPHEMERIS_TYPE": 0, "CLASSIFICATION_TYPE": "U", "NORAD_CAT_ID": 54026, "ELEMENT_SET_NO": 999, "REV_AT_EPOCH": 1180, "BSTAR": 0, "MEAN_MOTION_DOT": 8.9e-07, "MEAN_MOTION_DDOT": 0}, "tle": {"line1": "1 54026U 22128A   25339.68239076  .00000089  00000+0  00000+0 0  9990", "line2": "2 54026   0.0146  29.2762 0002245 219.9027 298.2192  1.00269755 11809"}}, "geometry": {"type": "Point", "coordinates": [114.53044457052974, 0.028564741367621063]}}, {"type": "Feature", "properties": {"norad_id": 54027, "name": "GALAXY 34 (G-34)", "group": "intelsat", "lat": 0.028357318298749566, "lon": 118.59377584548514, "alt_km": 35789.671471793816, "timestamp": "2025-12-06T11:28:10.697300+00:00", "meta": {"OBJECT_NAME": "GALAXY 34 (G-34)", "OBJECT_ID": "2022-128B", "EPOCH": "2025-12-05T16:22:38.561664", "MEAN_MOTION": 1.0026959, "ECCENTRICITY": 0.00012876, "INCLINATION": 0.0211, "RA_OF_ASC_NODE": 337.5147, "ARG_OF_PERICENTER": 264.8288, "MEAN_ANOMALY": 309.1125, "EPHEMERIS_TYPE": 0, "CLASSIFICATION_TYPE": "U", "NORAD_CAT_ID": 54027, "ELEMENT_SET_NO": 999, "REV_AT_EPOCH": 1197, "BSTAR": 0, "MEAN_MOTION_DOT": 0, "MEAN_MOTION_DDOT": 0}, "tle": {"line1": "1 54027U 22128B   25339.68239076  .00000000  00000+0  00000+0 0  9994", "line2": "2 54027   0.0211 337.5147 0001287 264.8288 309.1125  1.00269590 11971"}}, "geometry": {"type": "Point", "coordinates": [118.59377584548514, 0.028357318298749566]}}, {"type": "Feature", "properties": {"norad_id": 54243, "name": "GALAXY 31 (G-31)", "group": "intelsat", "lat": 0.010695648611644293, "lon": 126.53614660793147, "alt_km": 35792.77679997782, "timestamp": "2025-12-06T11:28:10.697312+00:00", "meta": {"OBJECT_NAME": "GALAXY 31 (G-31)", "OBJECT_ID": "2022-153A", "EPOCH": "2025-12-05T21:40:55.875072", "MEAN_MOTION": 1.00270728, "ECCENTRICITY": 0.00019764, "INCLINATION": 0.0153, "RA_OF_ASC_NODE": 72.1314, "ARG_OF_PERICENTER": 194.689, "MEAN_ANOMALY": 12.3663, "EPHEMERIS_TYPE": 0, "CLASSIFICATION_TYPE": "U", "NORAD_CAT_ID": 54243, "ELEMENT_SET_NO": 999, "REV_AT_EPOCH": 519, "BSTAR": 0, "MEAN_MOTION_DOT": 2.2e-07, "MEAN_MOTION_DDOT": 0}, "tle": {"line1": "1 54243U 22153A   25339.90342448  .00000022  00000+0  00000+0 0  9999", "line2": "2 54243   0.0153  72.1314 0001976 194.6890  12.3663  1.00270728  5190"}}, "geometry": {"type": "Point", "coordinates": [126.53614660793147, 0.010695648611644293]}}, {"type": "Feature", "properties": {"norad_id": 54244, "name": "GALAXY 32 (G-32)", "group": "intelsat", "lat": 0.0015865746646693123, "lon": 156.5711675116492, "alt_km": 35794.29143015011, "timestamp": "2025-12-06T11:28:10.697324+00:00", "meta": {"OBJECT_NAME": "GALAXY 32 (G-32)", "OBJECT_ID": "2022-153B", "EPOCH": "2025-12-04T13:17:37.099104", "MEAN_MOTION": 1.00275803, "ECCENTRICITY": 0.00027886, "INCLINATION": 0.0107, "RA_OF_ASC_NODE": 343.0801, "ARG_OF_PERICENTER": 315.5746, "MEAN_ANOMALY": 243.3847, "EPHEMERIS_TYPE": 0, "CLASSIFICATION_TYPE": "U", "NORAD_CAT_ID": 54244, "ELEMENT_SET_NO": 999, "REV_AT_EPOCH": 1119, "BSTAR": 0, "MEAN_MOTION_DOT": -1.6e-06, "MEAN_MOTION_DDOT": 0}, "tle": {"line1": "1 54244U 22153B   25338.55390161 -.00000160  00000+0  00000+0 0  9999", "line2": "2 54244   0.0107 343.0801 0002788 315.5746 243.3847  1.00275803 11193"}}, "geometry": {"type": "Point", "coordinates": [156.5711675116492, 0.0015865746646693123]}}, {"type": "Feature", "properties": {"norad_id": 54741, "name": "GALAXY 35 (G-35)", "group": "intelsat", "lat": 0.015385436977615697, "lon": 154.4311854418732, "alt_km": 35789.90688564035, "timestamp": "2025-12-06T11:28:10.697335+00:00", "meta": {"OBJECT_NAME": "GALAXY 35 (G-35)", "OBJECT_ID": "2022-170A", "EPOCH": "2025-12-05T21:48:47.620800", "MEAN_MOTION": 1.00271276, "ECCENTRICITY": 0.00027349, "INCLINATION": 0.0159, "RA_OF_ASC_NODE": 37.9543, "ARG_OF_PERICENTER": 224.9569, "MEAN_ANOMALY": 46.1559, "EPHEMERIS_TYPE": 0, "CLASSIFICATION_TYPE": "U", "NORAD_CAT_ID": 54741, "ELEMENT_SET_NO": 999, "REV_AT_EPOCH": 1095, "BSTAR": 0, "MEAN_MOTION_DOT": -1.53e-06, "MEAN_MOTION_DDOT": 0}, "tle": {"line1": "1 54741U 22170A   25339.90888450 -.00000153  00000+0  00000+0 0  9995", "line2": "2 54741   0.0159  37.9543 0002734 224.9569  46.1559  1.00271276 10953"}}, "geometry": {"type": "Point", "coordinates": [154.4311854418732, 0.015385436977615697]}}, {"type": "Feature", "properties": {"norad_id": 54742, "name": "GALAXY 36 (G-36)", "group": "intelsat", "lat": -0.017043297565066153, "lon": 158.54424256863138, "alt_km": 35786.87610834104, "timestamp": "2025-12-06T11:28:10.697347+00:00", "meta": {"OBJECT_NAME": "GALAXY 36 (G-36)", "OBJECT_ID": "2022-170B", "EPOCH": "2025-12-05T21:50:02.501952", "MEAN_MOTION": 1.00270891, "ECCENTRICITY": 6.245e-05, "INCLINATION": 0.0166, "RA_OF_ASC_NODE": 287.0856, "ARG_OF_PERICENTER": 332.553, "MEAN_ANOMALY": 53.8325, "EPHEMERIS_TYPE": 0, "CLASSIFICATION_TYPE": "U", "NORAD_CAT_ID": 54742, "ELEMENT_SET_NO": 999, "REV_AT_EPOCH": 1083, "BSTAR": 0, "MEAN_MOTION_DOT": -1.76e-06, "MEAN_MOTION_DDOT": 0}, "tle": {"line1": "1 54742U 22170B   25339.90975118 -.00000176  00000+0  00000+0 0  9999", "line2": "2 54742   0.0166 287.0856 0000624 332.5530  53.8325  1.00270891 10832"}}, "geometry": {"type": "Point", "coordinates": [158.54424256863138, -0.017043297565066153]}}, {"type": "Feature", "properties": {"norad_id": 57493, "name": "GALAXY 37 (G-37)", "group": "intelsat", "lat": 0.019914743149022265, "lon": 120.53490734344571, "alt_km": 35794.059811999716, "timestamp": "2025-12-06T11:28:10.697358+00:00", "meta": {"OBJECT_NAME": "GALAXY 37 (G-37)", "OBJECT_ID": "2023-112A", "EPOCH": "2025-12-05T21:39:11.041632", "MEAN_MOTION": 1.00270213, "ECCENTRICITY": 0.00024023, "INCLINATION": 0.013, "RA_OF_ASC_NODE": 330.3342, "ARG_OF_PERICENTER": 288.3562, "MEAN_ANOMALY": 14.0621, "EPHEMERIS_TYPE": 0, "CLASSIFICATION_TYPE": "U", "NORAD_CAT_ID": 57493, "ELEMENT_SET_NO": 999, "REV_AT_EPOCH": 860, "BSTAR": 0, "MEAN_MOTION_DOT": 5.7e-07, "MEAN_MOTION_DDOT": 0}, "tle": {"line1": "1 57493U 23112A   25339.90221113  .00000057  00000+0  00000+0 0  9998", "line2": "2 57493   0.0130 330.3342 0002402 288.3562  14.0621  1.00270213  8608"}}, "geometry": {"type": "Point", "coordinates": [120.53490734344571, 0.019914743149022265]}}]}